{"type":"FeatureCollection","features":[{"type":"Feature","geometry":{"type":"Polygon","coordinates":[[[105.17059960307655,9.165884121247432],[105.17111175766013,9.165925676921894],[105.17138278673914,9.164797392291955],[105.1717351727747,9.163333246765298],[105.17188147979877,9.162707659383429],[105.17138774246715,9.162601331644044],[105.17127128787133,9.163081581264619],[105.17119456022452,9.163397993666258],[105.17111823871566,9.163712705460417],[105.17096257937874,9.164354404210368],[105.17059960307655,9.165884121247432]]]},"properties":{"ID Thửa Đất":"17718296","Số tờ":"2","Số thửa":"43","Diện tích":"20716.7","Loại Đất":"Đất nuôi trồng thuỷ sản","Tên Chủ":"Lương Thị Tènh (Đang cập nhật)","Số định danh":"","Số Phát Hành":"","Trạng Thái":"Bình thường","Địa Chỉ Thửa Đất":"Phường Hòa Thành","Ngày Tạo":"31/07/2026","Ngày\nCập Nhật":"31/07/2026","Ghi Chú":""}},{"type":"Feature","geometry":{"type":"Polygon","coordinates":[[[105.164969649367,9.169740316648406],[105.1649598246599,9.169839260190717],[105.16494318503024,9.169992095881994],[105.16492787604264,9.170131447918653],[105.16534158199644,9.170161429053627],[105.16540598095727,9.169563471979652],[105.1651831360557,9.169557832906222],[105.16499528066684,9.169480961980147],[105.16499188700692,9.169515317721416],[105.16498393049538,9.169596264803245],[105.164969649367,9.169740316648406]]]},"properties":{"ID Thửa Đất":"17753763","Số tờ":"6","Số thửa":"91","Diện tích":"01/08/3068","Loại Đất":"Đất nuôi trồng thuỷ sản","Tên Chủ":"LÊ THỊ TỪ (Đang cập nhật)","Số định danh":"","Số Phát Hành":"","Trạng Thái":"Bình thường","Địa Chỉ Thửa Đất":"Phường Hòa Thành","Ngày Tạo":"31/07/2026","Ngày\nCập Nhật":"31/07/2026","Ghi Chú":""}},{"type":"Feature","geometry":{"type":"Polygon","coordinates":[[[105.1712426246156,9.172572800949016],[105.17089782055818,9.172594779229446],[105.17090951898838,9.173009681608454],[105.17125342282506,9.172987804419318],[105.1712426246156,9.172572800949016]]]},"properties":{"ID Thửa Đất":"17755320","Số tờ":"7","Số thửa":"11","Diện tích":"1739.83","Loại Đất":"Đất trồng cây lâu năm","Tên Chủ":"Phụng (Đang cập nhật)","Số định danh":"","Số Phát Hành":"","Trạng Thái":"Bình thường","Địa Chỉ Thửa Đất":"Phường Hòa Thành","Ngày Tạo":"31/07/2026","Ngày\nCập Nhật":"31/07/2026","Ghi Chú":""}},{"type":"Feature","geometry":{"type":"Polygon","coordinates":[[[105.17575161867873,9.16946698743713],[105.17605374812324,9.169393818057252],[105.17641296649269,9.169297747561371],[105.17666452562294,9.169230467973374],[105.1765342709942,9.168892615223614],[105.17563777062882,9.169119727420593],[105.17575161867873,9.16946698743713]]]},"properties":{"ID Thửa Đất":"17755861","Số tờ":"7","Số thửa":"114","Diện tích":"4139.27","Loại Đất":"Đất nuôi trồng thuỷ sản","Tên Chủ":"LÊ VĂN THUẬN (Đang cập nhật)","Số định danh":"","Số Phát Hành":"","Trạng Thái":"Bình thường","Địa Chỉ Thửa Đất":"Phường Hòa Thành","Ngày Tạo":"31/07/2026","Ngày\nCập Nhật":"31/07/2026","Ghi Chú":""}},{"type":"Feature","geometry":{"type":"Polygon","coordinates":[[[105.167737826144,9.17158849814478],[105.16722126223115,9.17158248936884],[105.16711594670164,9.172438030099302],[105.1672513006,9.172455475024726],[105.16734861124961,9.172468017160002],[105.16743880471839,9.172479641107449],[105.16752195381453,9.172490355779809],[105.16742686242009,9.17326594888296],[105.1680768713212,9.173347299413207],[105.1680821616888,9.173305562124478],[105.16811701510979,9.17303047588514],[105.16824499584324,9.172020297917589],[105.16769067446369,9.172016529632721],[105.167737826144,9.17158849814478]]]},"properties":{"ID Thửa Đất":"48403806","Số tờ":"7","Số thửa":"379","Diện tích":"15348.7","Loại Đất":"Đất nuôi trồng thuỷ sản","Tên Chủ":"Trần Việt Phương (Đang cập nhật)","Số định danh":"","Số Phát Hành":"","Trạng Thái":"Bình thường","Địa Chỉ Thửa Đất":"Phường Hòa Thành","Ngày Tạo":"31/07/2026","Ngày\nCập Nhật":"31/07/2026","Ghi Chú":""}},{"type":"Feature","geometry":{"type":"Polygon","coordinates":[[[105.17177709184193,9.184693851725301],[105.17204557364614,9.184189458168616],[105.17224390161253,9.184217570458905],[105.17223715188688,9.185463981639879],[105.17177364020144,9.185421624795428],[105.17177430955925,9.184907512338013],[105.17177709184193,9.184693851725301]]]},"properties":{"ID Thửa Đất":"17737258","Số tờ":"2","Số thửa":"18","Diện tích":"6229","Loại Đất":"Đất chuyên trồng lúa nước","Tên Chủ":"Nguyễn Phước Hoàng (Đang cập nhật)","Số định danh":"","Số Phát Hành":"","Trạng Thái":"Bình thường","Địa Chỉ Thửa Đất":"Phường Tân Thành","Ngày Tạo":"31/07/2026","Ngày\nCập Nhật":"31/07/2026","Ghi Chú":""}},{"type":"Feature","geometry":{"type":"Polygon","coordinates":[[[105.161884144194,9.182824115411883],[105.16192582087334,9.18282503363689],[105.16191997279255,9.18300795836924],[105.16187738616043,9.183007041812308],[105.161884144194,9.182824115411883]]]},"properties":{"ID Thửa Đất":"17762059","Số tờ":"13","Số thửa":"57","Diện tích":"93.7","Loại Đất":"Đất ở tại đô thị","Tên Chủ":"Ubnd Phường 5 (Đang cập nhật)","Số định danh":"","Số Phát Hành":"","Trạng Thái":"Bình thường","Địa Chỉ Thửa Đất":"Phường Tân Thành","Ngày Tạo":"31/07/2026","Ngày\nCập Nhật":"31/07/2026","Ghi Chú":""}},{"type":"Feature","geometry":{"type":"Polygon","coordinates":[[[105.15813355448554,9.178816530845072],[105.15839023191965,9.179056482897185],[105.15835826372509,9.179089633865614],[105.15810276951679,9.178849860471301],[105.15813355448554,9.178816530845072]]]},"properties":{"ID Thửa Đất":"17769653","Số tờ":"22","Số thửa":"121","Diện tích":"194.9","Loại Đất":"Đất ở tại đô thị","Tên Chủ":"Hồ Như Lĩnh (Đang cập nhật)","Số định danh":"","Số Phát Hành":"","Trạng Thái":"Bình thường","Địa Chỉ Thửa Đất":"Phường Tân Thành","Ngày Tạo":"31/07/2026","Ngày\nCập Nhật":"31/07/2026","Ghi Chú":""}},{"type":"Feature","geometry":{"type":"Polygon","coordinates":[[[105.16249560562791,9.174190229446982],[105.1624742093468,9.174330144125296],[105.16243953090499,9.174324330542108],[105.16245730383831,9.174193192976135],[105.16245847111715,9.17418478203381],[105.16249560562791,9.174190229446982]]]},"properties":{"ID Thửa Đất":"17773173","Số tờ":"35","Số thửa":"138","Diện tích":"62.4","Loại Đất":"Đất ở tại đô thị","Tên Chủ":"Châu Thanh Tân (Đang cập nhật)","Số định danh":"","Số Phát Hành":"","Trạng Thái":"Bình thường","Địa Chỉ Thửa Đất":"Phường Tân Thành","Ngày Tạo":"31/07/2026","Ngày\nCập Nhật":"31/07/2026","Ghi Chú":""}},{"type":"Feature","geometry":{"type":"Polygon","coordinates":[[[105.16251968879573,9.174223368447244],[105.16250297136686,9.174334883539018],[105.1624742093468,9.174330144125296],[105.16249560562791,9.174190229446982],[105.1625240026665,9.17419442702511],[105.16251968879573,9.174223368447244]]]},"properties":{"ID Thửa Đất":"17773175","Số tờ":"35","Số thửa":"139","Diện tích":"49.9","Loại Đất":"Đất ở tại đô thị","Tên Chủ":"Nguyễn Văn Trương (Đang cập nhật)","Số định danh":"","Số Phát Hành":"","Trạng Thái":"Bình thường","Địa Chỉ Thửa Đất":"Phường Tân Thành","Ngày Tạo":"31/07/2026","Ngày\nCập Nhật":"31/07/2026","Ghi Chú":""}},{"type":"Feature","geometry":{"type":"Polygon","coordinates":[[[105.1625468267305,9.174235525047779],[105.16253100680257,9.174340347619719],[105.16250297136686,9.174334883539018],[105.16251968879573,9.174223368447244],[105.16254799467848,9.174227475773069],[105.1625468267305,9.174235525047779]]]},"properties":{"ID Thửa Đất":"17773177","Số tờ":"35","Số thửa":"140","Diện tích":"39.4","Loại Đất":"Đất ở tại đô thị","Tên Chủ":"Nguyễn Văn Thê (Đang cập nhật)","Số định danh":"","Số Phát Hành":"","Trạng Thái":"Bình thường","Địa Chỉ Thửa Đất":"Phường Tân Thành","Ngày Tạo":"31/07/2026","Ngày\nCập Nhật":"31/07/2026","Ghi Chú":""}},{"type":"Feature","geometry":{"type":"Polygon","coordinates":[[[105.1702056187074,9.173157290811194],[105.17020511376208,9.173324563405215],[105.16995818043996,9.173332977700392],[105.16998058349755,9.173149299028932],[105.1702056187074,9.173157290811194]]]},"properties":{"ID Thửa Đất":"17755275","Số tờ":"7","Số thửa":"2","Diện tích":"503.3","Loại Đất":"Đất nuôi trồng thuỷ sản","Tên Chủ":"Nguyễn Văn Bá (Đang cập nhật)","Số định danh":"","Số Phát Hành":"","Trạng Thái":"Bình thường","Địa Chỉ Thửa Đất":"","Ngày Tạo":"03/08/2026","Ngày\nCập Nhật":"03/08/2026","Ghi Chú":""}},{"type":"Feature","geometry":{"type":"Polygon","coordinates":[[[105.17056851310642,9.17312117453587],[105.1702056187074,9.173157290811194],[105.17020511376208,9.173324563405215],[105.17057105808672,9.173313505084726],[105.17056851310642,9.17312117453587]]]},"properties":{"ID Thửa Đất":"17755279","Số tờ":"7","Số thửa":"3","Diện tích":"796.72","Loại Đất":"Đất ở tại đô thị, Đất chuyên trồng lúa nước","Tên Chủ":"NGUYỄN VĂN HOÀN (Đang cập nhật)","Số định danh":"","Số Phát Hành":"","Trạng Thái":"Bình thường","Địa Chỉ Thửa Đất":"","Ngày Tạo":"03/08/2026","Ngày\nCập Nhật":"03/08/2026","Ghi Chú":""}},{"type":"Feature","geometry":{"type":"Polygon","coordinates":[[[105.17125342282506,9.172987804419318],[105.17090951898838,9.173009681608454],[105.17091775889234,9.173303024602845],[105.17125996496169,9.173292678717623],[105.1712594550074,9.173195662122524],[105.17125450020792,9.17302849011222],[105.17125342282506,9.172987804419318]]]},"properties":{"ID Thửa Đất":"17755285","Số tờ":"7","Số thửa":"4","Diện tích":"1251.46","Loại Đất":"Đất trồng cây lâu năm","Tên Chủ":"UBND Phường (Đang cập nhật)","Số định danh":"","Số Phát Hành":"","Trạng Thái":"Bình thường","Địa Chỉ Thửa Đất":"","Ngày Tạo":"03/08/2026","Ngày\nCập Nhật":"03/08/2026","Ghi Chú":""}},{"type":"Feature","geometry":{"type":"Polygon","coordinates":[[[105.17021035395334,9.172286655634874],[105.1702056187074,9.173157290811194],[105.16998058349755,9.173149299028932],[105.17004107258646,9.17270234555932],[105.1700973435577,9.172286593801305],[105.17021035395334,9.172286655634874]]]},"properties":{"ID Thửa Đất":"17755315","Số tờ":"7","Số thửa":"10","Diện tích":"01/05/1783","Loại Đất":"Đất nuôi trồng thuỷ sản","Tên Chủ":"Nguyễn Văn Bá (Đang cập nhật)","Số định danh":"","Số Phát Hành":"","Trạng Thái":"Bình thường","Địa Chỉ Thửa Đất":"","Ngày Tạo":"03/08/2026","Ngày\nCập Nhật":"03/08/2026","Ghi Chú":""}},{"type":"Feature","geometry":{"type":"Polygon","coordinates":[[[105.16851426721101,9.171594215789966],[105.16885293066166,9.171592685469134],[105.16868190456208,9.172826653234345],[105.16861083584608,9.173358527850054],[105.16833509605752,9.173338512903047],[105.16836487175446,9.173058435970104],[105.16851426721101,9.171594215789966]]]},"properties":{"ID Thửa Đất":"17755428","Số tờ":"7","Số thửa":"29","Diện tích":"01/06/6546","Loại Đất":"Đất trồng lúa","Tên Chủ":"CHUNG MỸ CHƠN (Đang cập nhật)","Số định danh":"","Số Phát Hành":"","Trạng Thái":"Bình thường","Địa Chỉ Thửa Đất":"","Ngày Tạo":"31/07/2026","Ngày\nCập Nhật":"03/08/2026","Ghi Chú":""}},{"type":"Feature","geometry":{"type":"Polygon","coordinates":[[[105.1705479048378,9.17159540592315],[105.17056851310642,9.17312117453587],[105.17057105808672,9.173313505084726],[105.17091775889234,9.173303024602845],[105.17090951898838,9.173009681608454],[105.17089782055818,9.172594779229446],[105.17088787163297,9.172239286673394],[105.17088533772039,9.172149778439483],[105.17086992692084,9.171604049366806],[105.1705479048378,9.17159540592315]]]},"properties":{"ID Thửa Đất":"17755434","Số tờ":"7","Số thửa":"30","Diện tích":"01/01/6944","Loại Đất":"Đất nuôi trồng thuỷ sản","Tên Chủ":"Nguyễn Văn Hỷ (Đang cập nhật)","Số định danh":"","Số Phát Hành":"","Trạng Thái":"Bình thường","Địa Chỉ Thửa Đất":"","Ngày Tạo":"03/08/2026","Ngày\nCập Nhật":"03/08/2026","Ghi Chú":""}},{"type":"Feature","geometry":{"type":"Polygon","coordinates":[[[105.1712316674508,9.172116766482466],[105.17123393867581,9.172211700221593],[105.17124015440243,9.172468825871663],[105.17124184630534,9.17254115640953],[105.1712426246156,9.172572800949016],[105.17125342282506,9.172987804419318],[105.17125450020792,9.17302849011222],[105.1712594550074,9.173195662122524],[105.17125996496169,9.173292678717623],[105.17141949915292,9.17328785263657],[105.17138260082751,9.171617374888697],[105.17121961896285,9.171607740564014],[105.17122327466515,9.171761533270153],[105.17122435142896,9.171806739822573],[105.1712316674508,9.172116766482466]]]},"properties":{"ID Thửa Đất":"17755440","Số tờ":"7","Số thửa":"31","Diện tích":"01/05/3282","Loại Đất":"Đất nuôi trồng thuỷ sản","Tên Chủ":"LuyƠn (Đang cập nhật)","Số định danh":"","Số Phát Hành":"","Trạng Thái":"Bình thường","Địa Chỉ Thửa Đất":"","Ngày Tạo":"03/08/2026","Ngày\nCập Nhật":"03/08/2026","Ghi Chú":""}},{"type":"Feature","geometry":{"type":"Polygon","coordinates":[[[105.17056851310642,9.17312117453587],[105.1705479048378,9.17159540592315],[105.170214044314,9.17158644958648],[105.1702056187074,9.173157290811194],[105.17056851310642,9.17312117453587]]]},"properties":{"ID Thửa Đất":"17755530","Số tờ":"7","Số thửa":"46","Diện tích":"6557.34","Loại Đất":"Đất nuôi trồng thuỷ sản","Tên Chủ":"Chưa có tên","Số định danh":"","Số Phát Hành":"","Trạng Thái":"Bình thường","Địa Chỉ Thửa Đất":"","Ngày Tạo":"03/08/2026","Ngày\nCập Nhật":"03/08/2026","Ghi Chú":""}},{"type":"Feature","geometry":{"type":"Polygon","coordinates":[[[105.16885293066166,9.171592685469134],[105.16922262153683,9.1715910070032],[105.16905042859146,9.172832843304054],[105.1689658956233,9.172831462600627],[105.16892003476372,9.172830643264593],[105.16874605500342,9.172827710029681],[105.16868190456208,9.172826653234345],[105.16885293066166,9.171592685469134]]]},"properties":{"ID Thửa Đất":"17755547","Số tờ":"7","Số thửa":"49","Diện tích":"01/05/5558","Loại Đất":"Đất nuôi trồng thuỷ sản","Tên Chủ":"Bà Xuân (Đang cập nhật)","Số định danh":"","Số Phát Hành":"","Trạng Thái":"Bình thường","Địa Chỉ Thửa Đất":"","Ngày Tạo":"31/07/2026","Ngày\nCập Nhật":"03/08/2026","Ghi Chú":""}},{"type":"Feature","geometry":{"type":"Polygon","coordinates":[[[105.16922262153683,9.1715910070032],[105.16955928315166,9.171589479725398],[105.16941142095214,9.17265586183629],[105.16940549542318,9.17269845927294],[105.16938610405448,9.172838551300922],[105.16933214488157,9.172837656590605],[105.16928646600452,9.172836836964336],[105.16924060531593,9.172836108085875],[105.1691490657494,9.172834559557915],[105.16905752601258,9.1728329205899],[105.16905042859146,9.172832843304054],[105.16922262153683,9.1715910070032]]]},"properties":{"ID Thửa Đất":"17755553","Số tờ":"7","Số thửa":"50","Diện tích":"4278","Loại Đất":"Đất nuôi trồng thuỷ sản","Tên Chủ":"Huỳnh Kim Xuân (Đang cập nhật)","Số định danh":"","Số Phát Hành":"","Trạng Thái":"Bình thường","Địa Chỉ Thửa Đất":"","Ngày Tạo":"03/08/2026","Ngày\nCập Nhật":"03/08/2026","Ghi Chú":""}},{"type":"Feature","geometry":{"type":"Polygon","coordinates":[[[105.16955928315166,9.171589479725398],[105.17021404433098,9.17158645862816],[105.17021035395334,9.172286655634874],[105.1700973435577,9.172286593801305],[105.17004107258646,9.17270234555932],[105.16941142095214,9.17265586183629],[105.16955928315166,9.171589479725398]]]},"properties":{"ID Thửa Đất":"17755559","Số tờ":"7","Số thửa":"51","Diện tích":"10444","Loại Đất":"Đất nuôi trồng thuỷ sản","Tên Chủ":"LÊ BÉ NĂM (Đang cập nhật)","Số định danh":"","Số Phát Hành":"","Trạng Thái":"Bình thường","Địa Chỉ Thửa Đất":"","Ngày Tạo":"03/08/2026","Ngày\nCập Nhật":"03/08/2026","Ghi Chú":""}},{"type":"Feature","geometry":{"type":"Polygon","coordinates":[[[105.17241217761574,9.17230498281754],[105.17241084552612,9.172274062653594],[105.17237929711142,9.171567430450938],[105.17215938485386,9.171568652976202],[105.17186190937511,9.171602117530245],[105.17189238607752,9.172324846080688],[105.17189239638442,9.17232548802286],[105.17241217761574,9.17230498281754]]]},"properties":{"ID Thửa Đất":"17755602","Số tờ":"7","Số thửa":"58","Diện tích":"4657.67","Loại Đất":"Đất nuôi trồng thuỷ sản","Tên Chủ":"Trần Thái Nguyên (Đang cập nhật)","Số định danh":"","Số Phát Hành":"","Trạng Thái":"Bình thường","Địa Chỉ Thửa Đất":"","Ngày Tạo":"03/08/2026","Ngày\nCập Nhật":"03/08/2026","Ghi Chú":""}},{"type":"Feature","geometry":{"type":"Polygon","coordinates":[[[105.17241649157339,9.172764564798321],[105.17241217761574,9.17230498281754],[105.17189239638442,9.17232548802286],[105.17190167271548,9.17278722180425],[105.17241649157339,9.172764564798321]]]},"properties":{"ID Thửa Đất":"48401258","Số tờ":"7","Số thửa":"219","Diện tích":"01/09/4967","Loại Đất":"Đất nuôi trồng thuỷ sản","Tên Chủ":"Phàng Thanh Hồng (Đang cập nhật)","Số định danh":"","Số Phát Hành":"","Trạng Thái":"Bình thường","Địa Chỉ Thửa Đất":"","Ngày Tạo":"03/08/2026","Ngày\nCập Nhật":"03/08/2026","Ghi Chú":""}},{"type":"Feature","geometry":{"type":"Polygon","coordinates":[[[105.17241649157339,9.172764564798321],[105.17190167271548,9.17278722180425],[105.1719111606793,9.173259841395659],[105.17191161558057,9.173259813425265],[105.1724207595068,9.173214173849225],[105.17241649157339,9.172764564798321]]]},"properties":{"ID Thửa Đất":"17756218","Số tờ":"7","Số thửa":"227","Diện tích":"2873.74","Loại Đất":"Đất nuôi trồng thuỷ sản","Tên Chủ":"NGUYỄN VĂN HOÀN (Đang cập nhật)","Số định danh":"","Số Phát Hành":"","Trạng Thái":"Bình thường","Địa Chỉ Thửa Đất":"","Ngày Tạo":"03/08/2026","Ngày\nCập Nhật":"03/08/2026","Ghi Chú":""}},{"type":"Feature","geometry":{"type":"Polygon","coordinates":[[[105.17141949915292,9.17328785263657],[105.171692260534,9.173272427256707],[105.17165546468517,9.171608730716041],[105.17138260082751,9.171617374888697],[105.17141949915292,9.17328785263657]]]},"properties":{"ID Thửa Đất":"48401935","Số tờ":"7","Số thửa":"316","Diện tích":"5533.51","Loại Đất":"Đất nuôi trồng thuỷ sản","Tên Chủ":"PHẠM MAI PHƯƠNG (Đang cập nhật)","Số định danh":"","Số Phát Hành":"","Trạng Thái":"Bình thường","Địa Chỉ Thửa Đất":"","Ngày Tạo":"03/08/2026","Ngày\nCập Nhật":"03/08/2026","Ghi Chú":""}},{"type":"Feature","geometry":{"type":"Polygon","coordinates":[[[105.17189239638442,9.17232548802286],[105.17189238607752,9.172324846080688],[105.17186190937511,9.171602117530245],[105.17165546468517,9.171608730716041],[105.171692260534,9.173272427256707],[105.1719111606793,9.173259841395659],[105.17190167271548,9.17278722180425],[105.17189239638442,9.17232548802286]]]},"properties":{"ID Thửa Đất":"48403556","Số tờ":"7","Số thửa":"338","Diện tích":"4388.73","Loại Đất":"Đất nuôi trồng thuỷ sản","Tên Chủ":"NGÔ VĂN MI (Đang cập nhật)","Số định danh":"","Số Phát Hành":"","Trạng Thái":"Bình thường","Địa Chỉ Thửa Đất":"","Ngày Tạo":"03/08/2026","Ngày\nCập Nhật":"03/08/2026","Ghi Chú":""}}]}